IRIDIUM 110             
1 43481U 18047F   21155.43497191  .00000104  00000-0  30211-4 0  9998
2 43481  86.3956 136.8391 0002084  93.8771 266.2663 14.34219482158923
IRIDIUM 162             
1 43482U 18047G   21155.43954143  .00000108  00000-0  26228-4 0  9991
2 43482  86.4478 136.8680 0002141  95.8635 264.2810 14.43276907159917
GAOFEN 6                
1 43484U 18048A   21155.49187288  .00000084  00000-0  19348-4 0  9996
2 43484  97.9576 236.8847 0009260 352.6883   7.4191 14.76515152162062
LUOJIA-1 01             
1 43485U 18048B   21155.52657654  .00000165  00000-0  30730-4 0  9998
2 43485  97.9607 237.3823 0010874 346.5228  13.5691 14.76849734162087
SES-12                  
1 43488U 18049A   21155.39424200 -.00000271  00000-0  00000-0 0  9998
2 43488   0.0375  69.5374 0000698 235.4985 184.9353  1.00271466 10996
FENGYUN 2H              
1 43491U 18050A   21155.00904220 -.00000127  00000-0  00000-0 0  9997
2 43491   0.2172 118.7145 0004482   9.2670 206.8766  1.00268191 10996
COSMOS 2527 [GLONASS-M] 
1 43508U 18053A   21155.38898950  .00000076  00000-0  00000-0 0  9994
2 43508  64.9011 135.5059 0009431 243.9583  11.8611  2.13102562 23085
REMOVEDEBRIS            
1 43510U 98067NT  21155.46508956  .00026323  00000-0  17107-3 0  9995
2 43510  51.6333 320.7113 0001817 291.1793  68.9012 15.75770727168719
XJS A                   
1 43518U 18054A   21155.54079354  .00002405  00000-0  82236-4 0  9996
2 43518  35.0471 335.7339 0008272 214.0927 199.6486 15.29912579164363
XJS B                   
1 43519U 18054B   21155.53898433  .00002542  00000-0  86932-4 0  9992
2 43519  35.0480 335.6151 0007001 253.7527 159.5586 15.29886163164365
PAKTES 1A               
1 43529U 18056A   21155.51875405  .00000324  00000-0  41732-4 0  9992
2 43529  97.9816 251.0804 0028029  52.5509 307.8239 14.87556009157754
PRSS 1                  
1 43530U 18056B   21155.45100228  .00000067  00000-0  16694-4 0  9994
2 43530  97.9636 234.5357 0001603  89.2839 270.8554 14.76986393156655
BEIDOU IGSO-7           
1 43539U 18057A   21155.66868856 -.00000055  00000-0  00000-0 0  9993
2 43539  55.0549 179.0691 0038815 222.9502 205.7352  1.00272923 10724
TEMPEST-D               
1 43547U 98067NV  21154.58050399  .00095831  14988-4  21769-3 0  9993
2 43547  51.6274 312.4416 0004092 276.0935  83.9607 15.97424312164774
AEROCUBE 12A            
1 43556U 18046C   21155.54905214  .00001865  00000-0  71860-4 0  9992
2 43556  51.6407 211.6629 0007991 115.2858 244.8952 15.31720505161305
AEROCUBE 12B            
1 43557U 18046D   21155.57365610  .00001562  00000-0  63203-4 0  9992
2 43557  51.6410 213.2943 0008177 114.6268 245.5565 15.31126967161234
LEMUR-2-VU              
1 43558U 18046E   21155.39914740  .00002514  00000-0  86981-4 0  9993
2 43558  51.6398 204.8554 0006862 119.8888 240.2777 15.33842330161371
LEMUR-2-ALEXANDER       
1 43559U 18046F   21155.38693942  .00002039  00000-0  72160-4 0  9997
2 43559  51.6396 204.0455 0006834 119.4089 240.7576 15.34088456161161
LEMUR-2-YUASA           
1 43560U 18046G   21155.43217934  .00001769  00000-0  64700-4 0  9998
2 43560  51.6396 205.0720 0006981 133.0432 227.1135 15.33782583161370
LEMUR-2-TOMHENDERSON    
1 43561U 18046H   21155.44582147  .00001573  00000-0  59303-4 0  9997
2 43561  51.6399 205.8956 0007268 129.2057 230.9572 15.33486047160925
TELSTAR 19V             
1 43562U 18059A   21155.33963799 -.00000281  00000-0  00000-0 0  9998
2 43562   0.0079 349.2338 0002821 130.7235 192.2991  1.00271074 10718
GSAT0221 (GALILEO 25)   
1 43564U 18060A   21155.12128145 -.00000103  00000-0  00000-0 0  9990
2 43564  57.0104  31.4484 0002789 301.2010  58.8154  1.70475665 17817
GSAT0222 (GALILEO 26)   
1 43565U 18060B   21154.75453908 -.00000104  00000-0  00000-0 0  9998
2 43565  57.0117  31.4583 0002846 315.1989  44.8211  1.70475627 17856
GSAT0219 (GALILEO 23)   
1 43566U 18060C   21154.38853128 -.00000105  00000-0  00000-0 0  9997
2 43566  57.0124  31.4700 0002604 320.5036  39.5197  1.70475622 17827
GSAT0220 (GALILEO 24)   
1 43567U 18060D   21154.02177809 -.00000105  00000-0  00000-0 0  9994
2 43567  57.0123  31.4797 0002471 313.2556  46.7657  1.70475572 17804
IRIDIUM 160             
1 43569U 18061A   21155.59012931  .00000081  00000-0  21782-4 0  9990
2 43569  86.3958 105.1483 0002495  80.5798 279.5680 14.34217663149847
IRIDIUM 166             
1 43570U 18061B   21155.40619685  .00000085  00000-0  23342-4 0  9999
2 43570  86.3958 105.2012 0002264  91.6499 268.4956 14.34217308149842
IRIDIUM 158             
1 43571U 18061C   21155.58377182  .00000077  00000-0  20428-4 0  9995
2 43571  86.3957 105.1345 0002436  88.3424 271.8051 14.34215391149835
IRIDIUM 165             
1 43572U 18061D   21155.39985158  .00000079  00000-0  20989-4 0  9997
2 43572  86.3960 105.2241 0002490  88.9358 271.2123 14.34217112149835
IRIDIUM 155             
1 43573U 18061E   21155.57110274  .00000084  00000-0  22990-4 0  9997
2 43573  86.3956 105.1099 0001795  90.3116 269.8285 14.34217474149829
IRIDIUM 154             
1 43574U 18061F   21155.41253133  .00000078  00000-0  20773-4 0  9993
2 43574  86.3959 105.2222 0002435  80.0543 280.0927 14.34216565149855
IRIDIUM 163             
1 43575U 18061G   21155.39350783  .00000079  00000-0  21053-4 0  9993
2 43575  86.3957 105.2015 0002699  92.5203 267.6302 14.34217952149823
IRIDIUM 156             
1 43576U 18061H   21155.57744647  .00000079  00000-0  21158-4 0  9996
2 43576  86.3957 105.1296 0002250  94.2493 265.8960 14.34217235149843
IRIDIUM 164             
1 43577U 18061J   21155.55840629  .00000086  00000-0  23801-4 0  9997
2 43577  86.3958 105.1500 0002495  83.3162 276.8318 14.34219034149888
IRIDIUM 159             
1 43578U 18061K   21155.59646733  .00000083  00000-0  22724-4 0  9992
2 43578  86.3957 105.1095 0002383  82.0779 278.0687 14.34218574149851
BEIDOU-3 M9             
1 43581U 18062A   21154.91726251 -.00000048  00000-0  00000-0 0  9997
2 43581  54.4063 245.0617 0003759 262.2454  10.0983  1.86231881 19378
BEIDOU-3 M10            
1 43582U 18062B   21155.41680113 -.00000045  00000-0  00000-0 0  9997
2 43582  54.4060 245.0338 0004124 355.6361 342.9572  1.86232031 19387
GAOFEN 11-1             
1 43585U 18063A   21155.52273807  .00000733  00000-0  33528-4 0  9999
2 43585  97.3528 234.9107 0016572  63.5188  51.3927 15.23534513158844
TELKOM 4 (MERAH PUTIH)  
1 43587U 18064A   21155.57179720 -.00000344  00000-0  00000-0 0  9990
2 43587   0.0201  65.2461 0001639  40.2971 101.5070  1.00270786 10431
AEOLUS                  
1 43600U 18066A   21155.33431556 -.00056199  00000-0 -22501-3 0  9993
2 43600  96.7133 162.3804 0008178 106.1098  19.0079 15.86485964161164
BEIDOU-3 M11            
1 43602U 18067A   21155.39529603 -.00000042  00000-0  00000-0 0  9995
2 43602  54.4819 243.6179 0006447 358.6520   7.7654  1.86231687 18886
BEIDOU-3 M12            
1 43603U 18067B   21155.38928929 -.00000042  00000-0  00000-0 0  9999
2 43603  54.4782 243.5837 0003741 345.1184 287.7377  1.86231626 18893
HAIYANG-1C              
1 43609U 18068A   21155.47970780  .00000031  00000-0  26333-4 0  9996
2 43609  98.4941 231.5078 0012658 169.3645 190.7812 14.34199827143533
TELSTAR 18V (APSTAR 5C) 
1 43611U 18069A   21155.52326465 -.00000295  00000-0  00000-0 0  9993
2 43611   0.0178   4.5001 0002008  69.4798 145.5658  1.00271259 10198
ICESAT-2                
1 43613U 18070A   21155.57316235  .00000390  00000-0  13939-4 0  9990
2 43613  92.0007 156.2761 0003174  82.2809 277.8800 15.28270505151665
SURFSAT                 
1 43614U 18070B   21155.56644439  .00004149  00000-0  96991-4 0  9995
2 43614  93.0298 300.6221 0016322  60.2281 300.0595 15.42069376152685
CP7 (DAVE)              
1 43615U 18070C   21155.38662149  .00004038  00000-0  95284-4 0  9995
2 43615  93.0302 300.5048 0016531  60.6736 299.6168 15.41783222152646
ELFIN-B                 
1 43616U 18070D   21155.56329144  .00006682  00000-0  14312-3 0  9990
2 43616  93.0256 300.7526 0016129  58.4669 301.8161 15.44644037152788
ELFIN-A                 
1 43617U 18070E   21155.39732146  .00006776  00000-0  14302-3 0  9995
2 43617  93.0304 301.5175 0015390  56.3134 303.9589 15.45092681152774
SSTL S1-4               
1 43618U 18071A   21155.51256439 -.00000393  00000-0 -30766-4 0  9991
2 43618  97.7239  52.2172 0013033 178.1286 182.0004 14.94883914148170
NOVASAR 1               
1 43619U 18071B   21155.57013673 -.00000562  00000-0 -46340-4 0  9992
2 43619  97.7251  52.2988 0006081 168.7088 191.4269 14.94899966148171
BEIDOU-3 M13            
1 43622U 18072A   21155.32643385  .00000043  00000-0  00000-0 0  9990
2 43622  55.2815 124.0707 0008862 289.1046 331.7302  1.86231789 18407
BEIDOU-3 M14            
1 43623U 18072B   21155.52304991  .00000041  00000-0  00000-0 0  9998
2 43623  55.2834 124.0557 0007034 308.2610 174.6279  1.86231664 18412
AZERSPACE 2 (IS-38)     
1 43632U 18074A   21155.21762333  .00000135  00000-0  00000-0 0  9998
2 43632   0.0150 323.3304 0001783  98.5329 314.4690  1.00271518 10046
HORIZONS 3E             
1 43633U 18074B   21155.24239833 -.00000032  00000-0  00000-0 0  9993
2 43633   0.0163 143.9741 0000221 160.3749 204.8068  1.00270263  9902
CENTISPACE-1 S1         
1 43636U 18075A   21155.51128976  .00000127  00000-0  38383-4 0  9995
2 43636  98.1076 225.2595 0010356 106.3664 253.8676 14.56823432142615
1998-067PN              
1 43638U 98067PN  21154.89620757  .00050017  00000-0  23327-3 0  9994
2 43638  51.6303 315.4059 0003025 274.7713  85.2945 15.82793098151925
STARS-ME                
1 43640U 98067PQ  21155.41770087  .00246635  37527-4  40843-3 0  9991
2 43640  51.6205 296.0346 0008487 305.4050  54.6168 16.02495886152223
SAOCOM 1A               
1 43641U 18076A   21155.48620837  .00000015  00000-0  84519-5 0  9990
2 43641  97.8902 342.6054 0001527  83.1640 276.9761 14.82156304143747
